BLUEBON                 
1 62688U 25009CH  26068.70316231  .00010452  00000+0  37313-3 0  9992
2 62688  97.4017 152.2033 0001193  43.3900 316.7434 15.29047253 63767
STARLINK-33876          
1 63639U 25083F   26068.21275973  .00036989  00000+0  13465-2 0  9998
2 63639  43.0046   7.9222 0001618 268.9865  91.0801 15.27590776 49997
